GLOBALSTAR M057 [-]     
1 25943U 99058A   23296.60139848 -.00000043  00000+0  45699-3 0  9998
2 25943  51.9974 258.2539 0002104 208.6390 151.4344 12.24776397 93090
GLOBALSTAR M059 [-]     
1 25944U 99058B   23296.52011365 -.00000098  00000+0 -14053-3 0  9994
2 25944  52.0043  37.5411 0000639 147.6837 295.5998 11.99953980501697
GLOBALSTAR M056 [-]     
1 25945U 99058C   23296.58785722 -.00000129  00000+0 -48198-3 0  9998
2 25945  51.9979  54.7991 0001520  90.3007 283.1220 12.04770417 89995
GLOBALSTAR M031 [-]     
1 25946U 99058D   23296.84506727 -.00000163  00000+0 -73923-3 0  9996
2 25946  51.9983 342.4583 0001690  46.1595 126.0904 12.15997496 91261
GLOBALSTAR M039 [-]     
1 25961U 99062A   23296.74929838 -.00000045  00000+0  32797-3 0  9991
2 25961  51.9846 303.5378 0003106  90.3297 269.7925 12.62272736104134
GLOBALSTAR M034 [-]     
1 25962U 99062B   23296.91281125 -.00000058  00000+0  36201-3 0  9999
2 25962  51.9842 136.9110 0013932 348.5763 156.3654 11.79416462 67329
GLOBALSTAR M029 [-]     
1 25963U 99062C   23296.75823520 -.00000054  00000+0  39777-3 0  9990
2 25963  51.9798 285.4505 0002933  18.8537 153.8881 11.99869279 96802
GLOBALSTAR M061 [-]     
1 25964U 99062D   23296.83152646 -.00000048  00000+0  53500-3 0  9997
2 25964  51.9800 313.1790 0005803 274.7412 256.3592 11.76752098 50551
